{
  "type": "FeatureCollection",
  "features": [
    {
      "type": "Feature",
      "properties": {
        "territory_id": "con:36902",
        "CONCELLO": "Cerdedo-Cotobade",
        "CODCONC": 36902,
        "CODIGOINE": "36902",
        "part": "Cerdedo",
        "NOME": "Cerdedo",
        "CODCOM": 52,
        "COMARCA": "Tabeirós-Terra de Montes",
        "CODPROV": 36,
        "PROVINCIA": "Pontevedra"
      },
      "geometry": {
        "type": "MultiPolygon",
        "coordinates": [
          [
            [
              [
                -8.3877026,
                42.5944778
              ],
              [
                -8.3823626,
                42.5684978
              ],
              [
                -8.3763826,
                42.5618379
              ],
              [
                -8.3656226,
                42.5585979
              ],
              [
                -8.3548326,
                42.5671979
              ],
              [
                -8.3467526,
                42.5627379
              ],
              [
                -8.3463726,
                42.5616079
              ],
              [
                -8.3402926,
                42.5509879
              ],
              [
                -8.3359226,
                42.5497279
              ],
              [
                -8.3320826,
                42.5336179
              ],
              [
                -8.3498426,
                42.5337879
              ],
              [
                -8.3654326,
                42.508178
              ],
              [
                -8.3700926,
                42.509138
              ],
              [
                -8.3849626,
                42.490688
              ],
              [
                -8.3828526,
                42.483308
              ],
              [
                -8.4091226,
                42.489288
              ],
              [
                -8.4049126,
                42.497068
              ],
              [
                -8.4209226,
                42.500288
              ],
              [
                -8.4263726,
                42.513108
              ],
              [
                -8.4376526,
                42.521368
              ],
              [
                -8.4427226,
                42.5270879
              ],
              [
                -8.4495426,
                42.5369579
              ],
              [
                -8.4577426,
                42.5383379
              ],
              [
                -8.4712826,
                42.5492279
              ],
              [
                -8.4794326,
                42.5630779
              ],
              [
                -8.4731426,
                42.5711578
              ],
              [
                -8.4713926,
                42.5783978
              ],
              [
                -8.4628126,
                42.5804678
              ],
              [
                -8.4438926,
                42.5894078
              ],
              [
                -8.4290726,
                42.5914478
              ],
              [
                -8.4159226,
                42.5820178
              ],
              [
                -8.4032126,
                42.5871278
              ],
              [
                -8.3943126,
                42.5946978
              ],
              [
                -8.3877026,
                42.5944778
              ]
            ]
          ]
        ]
      }
    },
    {
      "type": "Feature",
      "properties": {
        "territory_id": "con:36902",
        "CONCELLO": "Cerdedo-Cotobade",
        "CODCONC": 36902,
        "CODIGOINE": "36902",
        "part": "Cotobade",
        "NOME": "Cotobade",
        "CODCOM": 51,
        "COMARCA": "Pontevedra",
        "CODPROV": 36,
        "PROVINCIA": "Pontevedra"
      },
      "geometry": {
        "type": "MultiPolygon",
        "coordinates": [
          [
            [
              [
                -8.5474725,
                42.509318
              ],
              [
                -8.5388825,
                42.5231979
              ],
              [
                -8.5297525,
                42.521038
              ],
              [
                -8.5254025,
                42.5339979
              ],
              [
                -8.5157025,
                42.5344279
              ],
              [
                -8.5060826,
                42.5315479
              ],
              [
                -8.5075626,
                42.5230479
              ],
              [
                -8.5038926,
                42.517878
              ],
              [
                -8.4929426,
                42.521538
              ],
              [
                -8.4849426,
                42.518048
              ],
              [
                -8.4625226,
                42.5223179
              ],
              [
                -8.4542626,
                42.5285179
              ],
              [
                -8.4427226,
                42.5270879
              ],
              [
                -8.4376526,
                42.521368
              ],
              [
                -8.4263726,
                42.513108
              ],
              [
                -8.4209226,
                42.500288
              ],
              [
                -8.4049126,
                42.497068
              ],
              [
                -8.4091226,
                42.489288
              ],
              [
                -8.3828526,
                42.483308
              ],
              [
                -8.3881826,
                42.4722681
              ],
              [
                -8.3943026,
                42.4682281
              ],
              [
                -8.4015626,
                42.4592181
              ],
              [
                -8.4197226,
                42.4641681
              ],
              [
                -8.4220026,
                42.4598181
              ],
              [
                -8.4242826,
                42.4543581
              ],
              [
                -8.4360926,
                42.4372981
              ],
              [
                -8.4441126,
                42.4217382
              ],
              [
                -8.4451126,
                42.4142382
              ],
              [
                -8.4566026,
                42.4108682
              ],
              [
                -8.4627326,
                42.4123682
              ],
              [
                -8.4691326,
                42.4126682
              ],
              [
                -8.4894326,
                42.4205382
              ],
              [
                -8.4943026,
                42.4258282
              ],
              [
                -8.5196525,
                42.4235082
              ],
              [
                -8.5324425,
                42.4300082
              ],
              [
                -8.5386025,
                42.4283382
              ],
              [
                -8.5551025,
                42.4304382
              ],
              [
                -8.5641425,
                42.4355481
              ],
              [
                -8.5693225,
                42.4367381
              ],
              [
                -8.5805125,
                42.4482881
              ],
              [
                -8.5747525,
                42.4517081
              ],
              [
                -8.5750225,
                42.4588981
              ],
              [
                -8.5676725,
                42.4619581
              ],
              [
                -8.5633925,
                42.4708981
              ],
              [
                -8.5693925,
                42.487108
              ],
              [
                -8.5576725,
                42.491488
              ],
              [
                -8.5520625,
                42.491538
              ],
              [
                -8.5474725,
                42.509318
              ]
            ]
          ]
        ]
      }
    }
  ]
}
